{"type": "FeatureCollection", "features": [ {"type": "Feature", "properties": {"norad_id": 28649, "name": "IRS-P5 (CARTOSAT-1)", "group": "resource", "lat": 48.130174480205206, "lon": -167.28698858720935, "alt_km": 592.3297206674351, "timestamp": "2025-12-03T08:58:45.655491+00:00", "meta": {"OBJECT_NAME": "IRS-P5 (CARTOSAT-1)", "OBJECT_ID": "2005-017A", "EPOCH": "2025-12-03T01:56:49.999200", "MEAN_MOTION": 14.90349213, "ECCENTRICITY": 0.0001781, "INCLINATION": 97.5503, "RA_OF_ASC_NODE": 3.923, "ARG_OF_PERICENTER": 53.2669, "MEAN_ANOMALY": 306.8713, "EPHEMERIS_TYPE": 0, "CLASSIFICATION_TYPE": "U", "NORAD_CAT_ID": 28649, "ELEMENT_SET_NO": 999, "REV_AT_EPOCH": 11460, "BSTAR": 0.00027051, "MEAN_MOTION_DOT": 2.579e-05, "MEAN_MOTION_DDOT": 0}, "tle": {"line1": "1 28649U 05017A   25337.08113425  .00002579  00000+0  27051-3 0  9996", "line2": "2 28649  97.5503   3.9230 0001781  53.2669 306.8713 14.90349213114601"}}, "geometry": {"type": "Point", "coordinates": [-167.28698858720935, 48.130174480205206]}}, {"type": "Feature", "properties": {"norad_id": 28893, "name": "SINAH 1", "group": "resource", "lat": -64.85654065291442, "lon": 123.9355734442279, "alt_km": 694.2149184397304, "timestamp": "2025-12-03T08:58:45.655502+00:00", "meta": {"OBJECT_NAME": "SINAH 1", "OBJECT_ID": "2005-043D", "EPOCH": "2025-12-03T02:43:13.556640", "MEAN_MOTION": 14.63944236, "ECCENTRICITY": 0.0014812, "INCLINATION": 98.2599, "RA_OF_ASC_NODE": 105.6452, "ARG_OF_PERICENTER": 165.9395, "MEAN_ANOMALY": 194.2223, "EPHEMERIS_TYPE": 0, "CLASSIFICATION_TYPE": "U", "NORAD_CAT_ID": 28893, "ELEMENT_SET_NO": 999, "REV_AT_EPOCH": 7183, "BSTAR": 0.00014559, "MEAN_MOTION_DOT": 7.14e-06, "MEAN_MOTION_DDOT": 0}, "tle": {"line1": "1 28893U 05043D   25337.11335135  .00000714  00000+0  14559-3 0  9992", "line2": "2 28893  98.2599 105.6452 0014812 165.9395 194.2223 14.63944236 71835"}}, "geometry": {"type": "Point", "coordinates": [123.9355734442279, -64.85654065291442]}}, {"type": "Feature", "properties": {"norad_id": 29079, "name": "EROS B", "group": "resource", "lat": 81.9174255017953, "lon": -21.132027623179873, "alt_km": 368.0802456785368, "timestamp": "2025-12-03T08:58:45.655514+00:00", "meta": {"OBJECT_NAME": "EROS B", "OBJECT_ID": "2006-014A", "EPOCH": "2025-12-03T03:58:36.313248", "MEAN_MOTION": 15.64552627, "ECCENTRICITY": 0.0002292, "INCLINATION": 97.3487, "RA_OF_ASC_NODE": 93.3097, "ARG_OF_PERICENTER": 233.7176, "MEAN_ANOMALY": 126.3871, "EPHEMERIS_TYPE": 0, "CLASSIFICATION_TYPE": "U", "NORAD_CAT_ID": 29079, "ELEMENT_SET_NO": 999, "REV_AT_EPOCH": 8930, "BSTAR": 0.0017302, "MEAN_MOTION_DOT": 0.00169732, "MEAN_MOTION_DDOT": 0}, "tle": {"line1": "1 29079U 06014A   25337.16569807  .00169732  00000+0  17302-2 0  9992", "line2": "2 29079  97.3487  93.3097 0002292 233.7176 126.3871 15.64552627 89303"}}, "geometry": {"type": "Point", "coordinates": [-21.132027623179873, 81.9174255017953]}}, {"type": "Feature", "properties": {"norad_id": 29228, "name": "RESURS-DK 1", "group": "resource", "lat": 17.260088468199125, "lon": 132.56063822062293, "alt_km": 531.9625286147602, "timestamp": "2025-12-03T08:58:45.655524+00:00", "meta": {"OBJECT_NAME": "RESURS-DK 1", "OBJECT_ID": "2006-021A", "EPOCH": "2025-12-02T20:11:48.097824", "MEAN_MOTION": 15.12068181, "ECCENTRICITY": 0.0007822, "INCLINATION": 69.9327, "RA_OF_ASC_NODE": 127.4146, "ARG_OF_PERICENTER": 265.8783, "MEAN_ANOMALY": 94.1489, "EPHEMERIS_TYPE": 0, "CLASSIFICATION_TYPE": "U", "NORAD_CAT_ID": 29228, "ELEMENT_SET_NO": 999, "REV_AT_EPOCH": 7288, "BSTAR": 0.00025634, "MEAN_MOTION_DOT": 4.317e-05, "MEAN_MOTION_DDOT": 0}, "tle": {"line1": "1 29228U 06021A   25336.84152891  .00004317  00000+0  25634-3 0  9996", "line2": "2 29228  69.9327 127.4146 0007822 265.8783  94.1489 15.12068181 72887"}}, "geometry": {"type": "Point", "coordinates": [132.56063822062293, 17.260088468199125]}}, {"type": "Feature", "properties": {"norad_id": 29268, "name": "ARIRANG-2 (KOMPSAT-2)", "group": "resource", "lat": -1.6658254743596648, "lon": -13.925761138915528, "alt_km": 691.172427651607, "timestamp": "2025-12-03T08:58:45.655536+00:00", "meta": {"OBJECT_NAME": "ARIRANG-2 (KOMPSAT-2)", "OBJECT_ID": "2006-031A", "EPOCH": "2025-12-03T05:07:18.750144", "MEAN_MOTION": 14.64479555, "ECCENTRICITY": 0.0014018, "INCLINATION": 97.8264, "RA_OF_ASC_NODE": 166.1506, "ARG_OF_PERICENTER": 340.6462, "MEAN_ANOMALY": 74.1045, "EPHEMERIS_TYPE": 0, "CLASSIFICATION_TYPE": "U", "NORAD_CAT_ID": 29268, "ELEMENT_SET_NO": 999, "REV_AT_EPOCH": 3279, "BSTAR": 0.00011208, "MEAN_MOTION_DOT": 5.49e-06, "MEAN_MOTION_DDOT": 0}, "tle": {"line1": "1 29268U 06031A   25337.21341146  .00000549  00000+0  11208-3 0  9991", "line2": "2 29268  97.8264 166.1506 0014018 340.6462  74.1045 14.64479555 32791"}}, "geometry": {"type": "Point", "coordinates": [-13.925761138915528, -1.6658254743596648]}}, {"type": "Feature", "properties": {"norad_id": 29709, "name": "LAPAN-TUBSAT", "group": "resource", "lat": 55.892992011668014, "lon": 159.5169734061553, "alt_km": 597.3804491265028, "timestamp": "2025-12-03T08:58:45.655547+00:00", "meta": {"OBJECT_NAME": "LAPAN-TUBSAT", "OBJECT_ID": "2007-001A", "EPOCH": "2025-12-03T05:11:41.527104", "MEAN_MOTION": 14.85646779, "ECCENTRICITY": 0.0013588, "INCLINATION": 98.1252, "RA_OF_ASC_NODE": 327.1776, "ARG_OF_PERICENTER": 102.2927, "MEAN_ANOMALY": 257.9809, "EPHEMERIS_TYPE": 0, "CLASSIFICATION_TYPE": "U", "NORAD_CAT_ID": 29709, "ELEMENT_SET_NO": 999, "REV_AT_EPOCH": 2205, "BSTAR": 0.00011737, "MEAN_MOTION_DOT": 9.61e-06, "MEAN_MOTION_DDOT": 0}, "tle": {"line1": "1 29709U 07001A   25337.21645286  .00000961  00000+0  11737-3 0  9996", "line2": "2 29709  98.1252 327.1776 0013588 102.2927 257.9809 14.85646779 22053"}}, "geometry": {"type": "Point", "coordinates": [159.5169734061553, 55.892992011668014]}}, {"type": "Feature", "properties": {"norad_id": 31113, "name": "HAIYANG-1B", "group": "resource", "lat": 48.98051736031313, "lon": -47.657625140575455, "alt_km": 773.9239842744983, "timestamp": "2025-12-03T08:58:45.655559+00:00", "meta": {"OBJECT_NAME": "HAIYANG-1B", "OBJECT_ID": "2007-010A", "EPOCH": "2025-12-02T22:40:46.164864", "MEAN_MOTION": 14.30959624, "ECCENTRICITY": 0.0014595, "INCLINATION": 98.3307, "RA_OF_ASC_NODE": 321.6283, "ARG_OF_PERICENTER": 65.0493, "MEAN_ANOMALY": 295.2206, "EPHEMERIS_TYPE": 0, "CLASSIFICATION_TYPE": "U", "NORAD_CAT_ID": 31113, "ELEMENT_SET_NO": 999, "REV_AT_EPOCH": 97256, "BSTAR": 8.3528e-05, "MEAN_MOTION_DOT": 1.78e-06, "MEAN_MOTION_DDOT": 0}, "tle": {"line1": "1 31113U 07010A   25336.94497876  .00000178  00000+0  83528-4 0  9995", "line2": "2 31113  98.3307 321.6283 0014595  65.0493 295.2206 14.30959624972565"}}, "geometry": {"type": "Point", "coordinates": [-47.657625140575455, 48.98051736031313]}}, {"type": "Feature", "properties": {"norad_id": 31598, "name": "COSMO-SKYMED 1", "group": "resource", "lat": 76.49324274480331, "lon": 17.9462429394895, "alt_km": 572.1705859463518, "timestamp": "2025-12-03T08:58:45.655570+00:00", "meta": {"OBJECT_NAME": "COSMO-SKYMED 1", "OBJECT_ID": "2007-023A", "EPOCH": "2025-12-03T03:42:45.711936", "MEAN_MOTION": 14.95652464, "ECCENTRICITY": 0.0001454, "INCLINATION": 97.8843, "RA_OF_ASC_NODE": 162.4917, "ARG_OF_PERICENTER": 81.9285, "MEAN_ANOMALY": 278.2101, "EPHEMERIS_TYPE": 0, "CLASSIFICATION_TYPE": "U", "NORAD_CAT_ID": 31598, "ELEMENT_SET_NO": 999, "REV_AT_EPOCH": 47, "BSTAR": 0.00044129, "MEAN_MOTION_DOT": 4.848e-05, "MEAN_MOTION_DDOT": 0}, "tle": {"line1": "1 31598U 07023A   25337.15469574  .00004848  00000+0  44129-3 0  9995", "line2": "2 31598  97.8843 162.4917 0001454  81.9285 278.2101 14.95652464   472"}}, "geometry": {"type": "Point", "coordinates": [17.9462429394895, 76.49324274480331]}}, {"type": "Feature", "properties": {"norad_id": 31698, "name": "TERRASAR-X", "group": "resource", "lat": 47.400862469340616, "lon": -25.282818773175087, "alt_km": 503.1672850882742, "timestamp": "2025-12-03T08:58:45.655581+00:00", "meta": {"OBJECT_NAME": "TERRASAR-X", "OBJECT_ID": "2007-026A", "EPOCH": "2025-12-02T13:47:56.806656", "MEAN_MOTION": 15.19154546, "ECCENTRICITY": 0.0001916, "INCLINATION": 97.4445, "RA_OF_ASC_NODE": 342.105, "ARG_OF_PERICENTER": 86.6664, "MEAN_ANOMALY": 273.4789, "EPHEMERIS_TYPE": 0, "CLASSIFICATION_TYPE": "U", "NORAD_CAT_ID": 31698, "ELEMENT_SET_NO": 999, "REV_AT_EPOCH": 2337, "BSTAR": 8.5350444e-05, "MEAN_MOTION_DOT": 1.726e-05, "MEAN_MOTION_DDOT": 0}, "tle": {"line1": "1 31698U 07026A   25336.57496304  .00001726  00000+0  85350-4 0  9999", "line2": "2 31698  97.4445 342.1050 0001916  86.6664 273.4789 15.19154546 23376"}}, "geometry": {"type": "Point", "coordinates": [-25.282818773175087, 47.400862469340616]}}, {"type": "Feature", "properties": {"norad_id": 32060, "name": "WORLDVIEW-1 (WV-1)", "group": "resource", "lat": -46.55882124397975, "lon": -92.88181412904272, "alt_km": 499.67073973124025, "timestamp": "2025-12-03T08:58:45.655592+00:00", "meta": {"OBJECT_NAME": "WORLDVIEW-1 (WV-1)", "OBJECT_ID": "2007-041A", "EPOCH": "2025-12-03T01:41:06.902592", "MEAN_MOTION": 15.24433285, "ECCENTRICITY": 7.49e-05, "INCLINATION": 97.3837, "RA_OF_ASC_NODE": 94.6892, "ARG_OF_PERICENTER": 93.5568, "MEAN_ANOMALY": 266.5755, "EPHEMERIS_TYPE": 0, "CLASSIFICATION_TYPE": "U", "NORAD_CAT_ID": 32060, "ELEMENT_SET_NO": 999, "REV_AT_EPOCH": 1300, "BSTAR": 0.0004855, "MEAN_MOTION_DOT": 0.0001185, "MEAN_MOTION_DDOT": 0}, "tle": {"line1": "1 32060U 07041A   25337.07021878  .00011850  00000+0  48550-3 0  9995", "line2": "2 32060  97.3837  94.6892 0000749  93.5568 266.5755 15.24433285 13001"}}, "geometry": {"type": "Point", "coordinates": [-92.88181412904272, -46.55882124397975]}}]}